NORAD_CAT_ID,OBJECT_NAME,OBJECT_TYPE,EPOCH,MEAN_MOTION,ECCENTRICITY,INCLINATION,RA_OF_ASC_NODE,ARG_OF_PERICENTER,MEAN_ANOMALY,BSTAR,MEAN_MOTION_DOT,MEAN_MOTION_DDOT,TLE_LINE0,TLE_LINE1,TLE_LINE2,SEMIMAJOR_AXIS,PERIOD,APOGEE,PERIGEE,DECAYED
52645.0,STARLINK-3973,PAYLOAD,2022-08-28 04:00:00,15.08840697,0.0001888,53.2179,287.9991,41.7131,37.7518,0.00057605,8.892e-05,0.0,0 STARLINK-3973,1 52645U 22052AZ  22240.16667824  .00008892  00000-0  57605-3 0  9996,2 52645  53.2179 287.9991 0001888  41.7131  37.7518 15.08840697 16835,6917.878000000002,95.438,541.049,538.437,0.0
52645.0,STARLINK-3973,PAYLOAD,2022-08-28 14:00:01,15.08820435,0.0002109999999999,53.2176,286.1304,36.0019,147.9685,0.0031212,0.0004971,0.0,0 STARLINK-3973,1 52645U 22052AZ  22240.58334491  .00049710  00000-0  31212-2 0  9992,2 52645  53.2176 286.1304 0002110  36.0019 147.9685 15.08820435  1305,6917.94,95.439,541.265,538.346,0.0
52645.0,STARLINK-3973,PAYLOAD,2022-08-28 22:00:00,15.08843912,0.000193,53.2177,284.6323,40.2418,155.3247,-0.00045088,-7.458e-05,0.0,0 STARLINK-3973,1 52645U 22052AZ  22240.91667824 -.00007458  00000-0 -45088-3 0  9990,2 52645  53.2177 284.6323 0001930  40.2418 155.3247 15.08843912  1301,6917.868,95.437,541.069,538.398,0.0
52645.0,STARLINK-3973,PAYLOAD,2022-08-29 04:00:00,15.08847634,0.0001973,53.2178,283.51,44.0321,70.2296,-0.0018049,-0.00028905,0.0,0 STARLINK-3973,1 52645U 22052AZ  22241.16667824 -.00028905  00000-0 -18049-2 0  9994,2 52645  53.2178 283.5100 0001973  44.0321  70.2296 15.08847634 16989,6917.857,95.437,541.087,538.357,0.0
52645.0,STARLINK-3973,PAYLOAD,2022-08-29 14:00:01,15.08804641,0.0002193,53.2173,281.6412,39.1404,179.6102,0.0027197,0.0004322,0.0,0 STARLINK-3973,1 52645U 22052AZ  22241.58334491  .00043220  00000-0  27197-2 0  9990,2 52645  53.2173 281.6412 0002193  39.1404 179.6102 15.08804641  1302,6917.988,95.44,541.371,538.336,0.0
52645.0,STARLINK-3973,PAYLOAD,2022-08-29 20:00:01,15.08834135,0.0002037,53.2174,280.5175,42.5612,94.8658,-0.0010225,-0.00016522,0.0,0 STARLINK-3973,1 52645U 22052AZ  22241.83334491 -.00016522  00000-0 -10225-2 0  9999,2 52645  53.2174 280.5175 0002037  42.5612  94.8658 15.08834135 17080,6917.898,95.438,541.172,538.354,0.0
52645.0,STARLINK-3973,PAYLOAD,2022-08-29 22:00:00,15.08812684,0.0001991,53.2173,280.143,43.1563,187.1731,0.0017652999999999,0.00027898,0.0,0 STARLINK-3973,1 52645U 22052AZ  22241.91667824  .00027898  00000-0  17653-2 0  9995,2 52645  53.2173 280.1430 0001991  43.1563 187.1731 15.08812684  1300,6917.964,95.439,541.206,538.452,0.0
52645.0,STARLINK-3973,PAYLOAD,2022-08-30 12:00:00,15.08813226,0.00022,53.2172,277.5261,41.0398,119.5575,0.0020624,0.00032664,0.0,0 STARLINK-3973,1 52645U 22052AZ  22242.50001157  .00032664  00000-0  20624-2 0  9991,2 52645  53.2172 277.5261 0002200  41.0398 119.5575 15.08813226 17189,6917.962,95.439,541.349,538.305,0.0
52645.0,STARLINK-3973,PAYLOAD,2022-08-30 14:00:01,15.08816112,0.0002195,53.2169,277.152,40.4026,213.0882,0.0021486,0.00034051,0.0,0 STARLINK-3973,1 52645U 22052AZ  22242.58334491  .00034051  00000-0  21486-2 0  9998,2 52645  53.2169 277.1520 0002195  40.4026 213.0882 15.08816112  1308,6917.953,95.439,541.337,538.3,0.0
52645.0,STARLINK-3973,PAYLOAD,2022-08-30 22:00:00,15.08816322,0.0002015,53.2169,275.6538,44.9266,220.1558,0.0021726999999999,0.00034438,0.0,0 STARLINK-3973,1 52645U 22052AZ  22242.91667824  .00034438  00000-0  21727-2 0  9991,2 52645  53.2169 275.6538 0002015  44.9266 220.1558 15.08816322  1308,6917.953,95.439,541.212,538.424,0.0
52645.0,STARLINK-3973,PAYLOAD,2022-08-31 14:00:01,15.08828053,0.0002225,53.2165,272.6627,41.5682,246.6912,0.0015818,0.00024968,0.0,0 STARLINK-3973,1 52645U 22052AZ  22243.58334491  .00024968  00000-0  15818-2 0  9997,2 52645  53.2165 272.6627 0002225  41.5682 246.6912 15.08828053  1309,6917.917,95.438,541.321,538.243,0.0
52645.0,STARLINK-3973,PAYLOAD,2022-08-31 22:00:00,15.08820061,0.000207,53.2166,271.1644,46.4685,253.3943,0.0024941,0.00039608,0.0,0 STARLINK-3973,1 52645U 22052AZ  22243.91667824  .00039608  00000-0  24941-2 0  9997,2 52645  53.2166 271.1644 0002070  46.4685 253.3943 15.08820061  1308,6917.941,95.439,541.238,538.374,0.0
52645.0,STARLINK-3973,PAYLOAD,2022-09-01 04:00:01,15.08857279,0.0002133,53.2168,270.0427,48.0114,170.5982,-0.0010972,-0.00017716,0.0,0 STARLINK-3973,1 52645U 22052AZ  22244.16668981 -.00017716  00000-0 -10972-2 0  9997,2 52645  53.2168 270.0427 0002133  48.0114 170.5982 15.08857279 17437,6917.828,95.436,541.168,538.217,0.0
52645.0,STARLINK-3973,PAYLOAD,2022-09-01 14:00:01,15.08840664,0.000229,53.2164,268.1732,42.1819,280.9355,0.0010955,0.0001719,0.0,0 STARLINK-3973,1 52645U 22052AZ  22244.58335648  .00017190  00000-0  10955-2 0  9999,2 52645  53.2164 268.1732 0002290  42.1819 280.9355 15.08840664  1300,6917.878000000002,95.438,541.328,538.159,0.0
52645.0,STARLINK-3973,PAYLOAD,2022-09-01 20:00:01,15.08847876,0.0002154,53.2168,267.0494,45.4717,196.3525,-7.676800000000001e-05,-1.51e-05,0.0,0 STARLINK-3973,1 52645U 22052AZ  22244.83335648 -.00001510  00000-0 -76768-4 0  9994,2 52645  53.2168 267.0494 0002154  45.4717 196.3525 15.08847876 17532,6917.856,95.437,541.211,538.231,0.0
52645.0,STARLINK-3973,PAYLOAD,2022-09-01 22:00:00,15.08834811,0.0002115,53.2166,266.675,46.6255,288.0416,0.0012411,0.00019517,0.0,0 STARLINK-3973,1 52645U 22052AZ  22244.91667824  .00019517  00000-0  12411-2 0  9994,2 52645  53.2166 266.6750 0002115  46.6255 288.0416 15.08834811  1308,6917.896,95.438,541.224,538.298,0.0
52645.0,STARLINK-3973,PAYLOAD,2022-09-02 14:00:01,15.08825511,0.0002311,53.2167,263.6839,40.6514,317.1985,0.00059375,9.17e-05,0.0,0 STARLINK-3973,1 52645U 22052AZ  22245.58334491  .00009170  00000-0  59375-3 0  9994,2 52645  53.2167 263.6839 0002311  40.6514 317.1985 15.08825511  1306,6917.925,95.438,541.388,538.191,0.0
52645.0,STARLINK-3973,PAYLOAD,2022-09-02 20:00:01,15.08819759,0.0002190999999999,53.2171,262.5602,44.4236,232.1174,0.00089957,0.0001405,0.0,0 STARLINK-3973,1 52645U 22052AZ  22245.83334491  .00014050  00000-0  89957-3 0  9994,2 52645  53.2171 262.5602 0002191  44.4236 232.1174 15.08819759 17687,6917.941999999999,95.439,541.323,538.2919999999998,0.0
52645.0,STARLINK-3973,PAYLOAD,2022-09-02 22:00:01,15.08806803,0.0002162,53.2169,262.1857,45.7856,323.7188,0.0030523,0.00048581,0.0,0 STARLINK-3973,1 52645U 22052AZ  22245.91668981  .00048581  00000-0  30523-2 0  9997,2 52645  53.2169 262.1857 0002162  45.7856 323.7188 15.08806803  1302,6917.982,95.44,541.3430000000002,538.351,0.0
52645.0,STARLINK-3973,PAYLOAD,2022-09-03 14:00:01,15.08841145,0.0002418,53.2171,259.1948,41.8552,350.7523,0.00033416,5.034e-05,0.0,0 STARLINK-3973,1 52645U 22052AZ  22246.58334491  .00005034  00000-0  33416-3 0  9998,2 52645  53.2171 259.1948 0002418  41.8552 350.7523 15.08841145  1307,6917.877,95.437,541.415,538.069,0.0
52645.0,STARLINK-3973,PAYLOAD,2022-09-03 22:00:00,15.08820464,0.0002256999999999,53.2173,257.6968,46.9752,357.2391,0.0031351,0.00049935,0.0,0 STARLINK-3973,1 52645U 22052AZ  22246.91667824  .00049935  00000-0  31351-2 0  9997,2 52645  53.2173 257.6968 0002257  46.9752 357.2391 15.08820464  1309,6917.94,95.439,541.366,538.244,0.0
52645.0,STARLINK-3973,PAYLOAD,2022-09-04 04:00:00,15.08866528,0.0002360999999999,53.2176,256.5754,47.0267,275.8774,-0.0013572,-0.0002184,0.0,0 STARLINK-3973,1 52645U 22052AZ  22247.16667824 -.00021840  00000-0 -13572-2 0  9997,2 52645  53.2176 256.5754 0002361  47.0267 275.8774 15.08866528 17894,6917.799,95.436,541.298,538.031,0.0
52645.0,STARLINK-3973,PAYLOAD,2022-09-04 14:00:01,15.08873121,0.0002455,53.2173,254.7056,42.4811,24.9977,-0.0028943,-0.00046101,0.0,0 STARLINK-3973,1 52645U 22052AZ  22247.58335648 -.00046101  00000-0 -28943-2 0  9994,2 52645  53.2173 254.7056 0002455  42.4811  24.9977 15.08873121  1308,6917.779,95.435,541.342,537.946,0.0
52645.0,STARLINK-3973,PAYLOAD,2022-09-04 20:00:01,15.08822688,0.0002258,53.2176,253.5821,46.2029,299.9418,0.0015517999999999,0.00024484,0.0,0 STARLINK-3973,1 52645U 22052AZ  22247.83334491  .00024484  00000-0  15518-2 0  9999,2 52645  53.2176 253.5821 0002258  46.2029 299.9418 15.08822688  1308,6917.933000000001,95.439,541.36,538.236,0.0
52645.0,STARLINK-3973,PAYLOAD,2022-09-05 04:00:00,15.08859604,0.0002323,53.2177,252.0866,46.0115,311.7174,-0.00133,-0.00021405,0.0,0 STARLINK-3973,1 52645U 22052AZ  22248.16667824 -.00021405  00000-0 -13300-2 0  9994,2 52645  53.2177 252.0866 0002323  46.0115 311.7174 15.08859604 18048,6917.82,95.436,541.2919999999998,538.078,0.0
52645.0,STARLINK-3973,PAYLOAD,2022-09-05 14:00:01,15.08872331,0.000239,53.2171,250.2167,42.3925,59.8373,-0.0033732,-0.00053623,0.0,0 STARLINK-3973,1 52645U 22052AZ  22248.58334491 -.00053623  00000-0 -33732-2 0  9999,2 52645  53.2171 250.2167 0002390  42.3925  59.8373 15.08872331  1302,6917.781999999997,95.436,541.3,537.993,0.0
52645.0,STARLINK-3973,PAYLOAD,2022-09-05 22:00:00,15.08817325,0.0002130999999999,53.2173,248.7189,45.4648,68.3783,0.00086862,0.00013555,0.0,0 STARLINK-3973,1 52645U 22052AZ  22248.91667824  .00013555  00000-0  86862-3 0  9996,2 52645  53.2173 248.7189 0002131  45.4648  68.3783 15.08817325  1301,6917.95,95.439,541.289,538.34,0.0
52645.0,STARLINK-3973,PAYLOAD,2022-09-06 12:00:00,15.08799507,0.000229,53.2167,246.1023,39.7916,4.3011,0.0018289,0.00028907,0.0,0 STARLINK-3973,1 52645U 22052AZ  22249.50001157  .00028907  00000-0  18289-2 0  9997,2 52645  53.2167 246.1023 0002290  39.7916   4.3011 15.08799507 18249,6918.004,95.44,541.453,538.285,0.0
52645.0,STARLINK-3973,PAYLOAD,2022-09-06 14:00:01,15.08821631,0.0002268,53.2167,245.7277,41.1255,95.8504,-0.00087732,-0.00014217,0.0,0 STARLINK-3973,1 52645U 22052AZ  22249.58334491 -.00014217  00000-0 -87732-3 0  9996,2 52645  53.2167 245.7277 0002268  41.1255  95.8504 15.08821631  1308,6917.937,95.439,541.371,538.2330000000002,0.0
